CTC1_L_00440001-01
1 42526U 22263KY  26070.40836806  .00000000  00000+0  00000-0 0  9993
2 42526  40.0000   0.0000 0000000   0.0000   0.0000 12.41559304    10
CTC1_L_00440001-02
1 42527U 25202ZM  26070.40836806  .00000000  00000+0  00000-0 0  9990
2 42527  40.0000   0.0000 0000000   0.0000  90.0000 12.41559304    10
CTC1_L_00440001-03
1 42528U 24877ID  26070.40836806  .00000000  00000+0  00000-0 0  9998
2 42528  40.0000   0.0000 0000000   0.0000 180.0000 12.41559304    11
CTC1_L_00440001-04
1 42529U 25341PU  26070.40836806  .00000000  00000+0  00000-0 0  9996
2 42529  40.0000   0.0000 0000000   0.0000 270.0000 12.41559304    12
CTC1_L_00440002-01
1 42530U 23420SK  26070.40836806  .00000000  00000+0  00000-0 0  9994
2 42530  40.0000  12.0000 0000000   0.0000  12.0000 12.41559304    11
CTC1_L_00440002-02
1 42531U 26133EW  26070.40836806  .00000000  00000+0  00000-0 0  9999
2 42531  40.0000  12.0000 0000000   0.0000 102.0000 12.41559304    12
CTC1_L_00440002-03
1 42532U 26180QA  26070.40836806  .00000000  00000+0  00000-0 0  9992
2 42532  40.0000  12.0000 0000000   0.0000 192.0000 12.41559304    12
CTC1_L_00440002-04
1 42533U 25545MC  26070.40836806  .00000000  00000+0  00000-0 0  9997
2 42533  40.0000  12.0000 0000000   0.0000 282.0000 12.41559304    13
CTC1_L_00440003-01
1 42534U 26014NN  26070.40836806  .00000000  00000+0  00000-0 0  9990
2 42534  40.0000  24.0000 0000000   0.0000  24.0000 12.41559304    11
CTC1_L_00440003-02
1 42535U 22112HG  26070.40836806  .00000000  00000+0  00000-0 0  9996
2 42535  40.0000  24.0000 0000000   0.0000 114.0000 12.41559304    12
CTC1_L_00440003-03
1 42536U 24291TF  26070.40836806  .00000000  00000+0  00000-0 0  9997
2 42536  40.0000  24.0000 0000000   0.0000 204.0000 12.41559304    13
CTC1_L_00440003-04
1 42537U 26221YR  26070.40836806  .00000000  00000+0  00000-0 0  9993
2 42537  40.0000  24.0000 0000000   0.0000 294.0000 12.41559304    13
CTC1_L_00440004-01
1 42538U 22557OH  26070.40836806  .00000000  00000+0  00000-0 0  9992
2 42538  40.0000  36.0000 0000000   0.0000  36.0000 12.41559304    11
CTC1_L_00440004-02
1 42539U 25886YZ  26070.40836806  .00000000  00000+0  00000-0 0  9991
2 42539  40.0000  36.0000 0000000   0.0000 126.0000 12.41559304    12
CTC1_L_00440004-03
1 42540U 23839VE  26070.40836806  .00000000  00000+0  00000-0 0  9999
2 42540  40.0000  36.0000 0000000   0.0000 216.0000 12.41559304    14
CTC1_L_00440004-04
1 42541U 23199RP  26070.40836806  .00000000  00000+0  00000-0 0  9999
2 42541  40.0000  36.0000 0000000   0.0000 306.0000 12.41559304    15
CTC1_L_00440005-01
1 42542U 23504TI  26070.40836806  .00000000  00000+0  00000-0 0  9990
2 42542  40.0000  48.0000 0000000   0.0000  48.0000 12.41559304    12
CTC1_L_00440005-02
1 42543U 23564GK  26070.40836806  .00000000  00000+0  00000-0 0  9997
2 42543  40.0000  48.0000 0000000   0.0000 138.0000 12.41559304    13
CTC1_L_00440005-03
1 42544U 24856QN  26070.40836806  .00000000  00000+0  00000-0 0  9993
2 42544  40.0000  48.0000 0000000   0.0000 228.0000 12.41559304    14
CTC1_L_00440005-04
1 42545U 25780TG  26070.40836806  .00000000  00000+0  00000-0 0  9991
2 42545  40.0000  48.0000 0000000   0.0000 318.0000 12.41559304    15
CTC1_L_00440006-01
1 42546U 22824VD  26070.40836806  .00000000  00000+0  00000-0 0  9998
2 42546  40.0000  60.0000 0000000   0.0000  60.0000 12.41559304    14
CTC1_L_00440006-02
1 42547U 25166K   26070.40836806  .00000000  00000+0  00000-0 0  9991
2 42547  40.0000  60.0000 0000000   0.0000 150.0000 12.41559304    15
CTC1_L_00440006-03
1 42548U 23700IK  26070.40836806  .00000000  00000+0  00000-0 0  9994
2 42548  40.0000  60.0000 0000000   0.0000 240.0000 12.41559304    16
CTC1_L_00440006-04
1 42549U 24392ID  26070.40836806  .00000000  00000+0  00000-0 0  9993
2 42549  40.0000  60.0000 0000000   0.0000 330.0000 12.41559304    17
CTC1_L_00440007-01
1 42550U 25382XY  26070.40836806  .00000000  00000+0  00000-0 0  9995
2 42550  40.0000  72.0000 0000000   0.0000  72.0000 12.41559304    15
CTC1_L_00440007-02
1 42551U 26105YN  26070.40836806  .00000000  00000+0  00000-0 0  9990
2 42551  40.0000  72.0000 0000000   0.0000 162.0000 12.41559304    16
CTC1_L_00440007-03
1 42552U 24378BB  26070.40836806  .00000000  00000+0  00000-0 0  9991
2 42552  40.0000  72.0000 0000000   0.0000 252.0000 12.41559304    17
CTC1_L_00440007-04
1 42553U 26956X   26070.40836806  .00000000  00000+0  00000-0 0  9996
2 42553  40.0000  72.0000 0000000   0.0000 342.0000 12.41559304    18
CTC1_L_00440008-01
1 42554U 24659NA  26070.40836806  .00000000  00000+0  00000-0 0  9995
2 42554  40.0000  84.0000 0000000   0.0000  84.0000 12.41559304    15
CTC1_L_00440008-02
1 42555U 25861B   26070.40836806  .00000000  00000+0  00000-0 0  9992
2 42555  40.0000  84.0000 0000000   0.0000 174.0000 12.41559304    16
CTC1_L_00440008-03
1 42556U 26285FH  26070.40836806  .00000000  00000+0  00000-0 0  9994
2 42556  40.0000  84.0000 0000000   0.0000 264.0000 12.41559304    17
CTC1_L_00440008-04
1 42557U 22921YK  26070.40836806  .00000000  00000+0  00000-0 0  9998
2 42557  40.0000  84.0000 0000000   0.0000 354.0000 12.41559304    18
CTC1_L_00440009-01
1 42558U 26218VM  26070.40836806  .00000000  00000+0  00000-0 0  9992
2 42558  40.0000  96.0000 0000000   0.0000  96.0000 12.41559304    15
CTC1_L_00440009-02
1 42559U 25834AR  26070.40836806  .00000000  00000+0  00000-0 0  9996
2 42559  40.0000  96.0000 0000000   0.0000 186.0000 12.41559304    16
CTC1_L_00440009-03
1 42560U 24203EC  26070.40836806  .00000000  00000+0  00000-0 0  9997
2 42560  40.0000  96.0000 0000000   0.0000 276.0000 12.41559304    18
CTC1_L_00440009-04
1 42561U 24340WA  26070.40836806  .00000000  00000+0  00000-0 0  9990
2 42561  40.0000  96.0000 0000000   0.0000   6.0000 12.41559304    10
CTC1_L_00440010-01
1 42562U 23976WL  26070.40836806  .00000000  00000+0  00000-0 0  9995
2 42562  40.0000 108.0000 0000000   0.0000 108.0000 12.41559304    18
CTC1_L_00440010-02
1 42563U 23887B   26070.40836806  .00000000  00000+0  00000-0 0  9997
2 42563  40.0000 108.0000 0000000   0.0000 198.0000 12.41559304    18
CTC1_L_00440010-03
1 42564U 26255KT  26070.40836806  .00000000  00000+0  00000-0 0  9990
2 42564  40.0000 108.0000 0000000   0.0000 288.0000 12.41559304    19
CTC1_L_00440010-04
1 42565U 26906AC  26070.40836806  .00000000  00000+0  00000-0 0  9994
2 42565  40.0000 108.0000 0000000   0.0000  18.0000 12.41559304    11
CTC1_L_00440011-01
1 42566U 25054VA  26070.40836806  .00000000  00000+0  00000-0 0  9998
2 42566  40.0000 120.0000 0000000   0.0000 120.0000 12.41559304    10
CTC1_L_00440011-02
1 42567U 26215HW  26070.40836806  .00000000  00000+0  00000-0 0  9999
2 42567  40.0000 120.0000 0000000   0.0000 210.0000 12.41559304    11
CTC1_L_00440011-03
1 42568U 25799HC  26070.40836806  .00000000  00000+0  00000-0 0  9996
2 42568  40.0000 120.0000 0000000   0.0000 300.0000 12.41559304    12
CTC1_L_00440011-04
1 42569U 24859YD  26070.40836806  .00000000  00000+0  00000-0 0  9993
2 42569  40.0000 120.0000 0000000   0.0000  30.0000 12.41559304    13
CTC1_L_00440012-01
1 42570U 26768NP  26070.40836806  .00000000  00000+0  00000-0 0  9996
2 42570  40.0000 132.0000 0000000   0.0000 132.0000 12.41559304    11
CTC1_L_00440012-02
1 42571U 23241EH  26070.40836806  .00000000  00000+0  00000-0 0  9990
2 42571  40.0000 132.0000 0000000   0.0000 222.0000 12.41559304    12
CTC1_L_00440012-03
1 42572U 23473XW  26070.40836806  .00000000  00000+0  00000-0 0  9998
2 42572  40.0000 132.0000 0000000   0.0000 312.0000 12.41559304    13
CTC1_L_00440012-04
1 42573U 25406XF  26070.40836806  .00000000  00000+0  00000-0 0  9997
2 42573  40.0000 132.0000 0000000   0.0000  42.0000 12.41559304    14
CTC1_L_00440013-01
1 42574U 22835GL  26070.40836806  .00000000  00000+0  00000-0 0  9991
2 42574  40.0000 144.0000 0000000   0.0000 144.0000 12.41559304    11
CTC1_L_00440013-02
1 42575U 25308CP  26070.40836806  .00000000  00000+0  00000-0 0  9990
2 42575  40.0000 144.0000 0000000   0.0000 234.0000 12.41559304    12
CTC1_L_00440013-03
1 42576U 24995HB  26070.40836806  .00000000  00000+0  00000-0 0  9992
2 42576  40.0000 144.0000 0000000   0.0000 324.0000 12.41559304    13
CTC1_L_00440013-04
1 42577U 24490CB  26070.40836806  .00000000  00000+0  00000-0 0  9993
2 42577  40.0000 144.0000 0000000   0.0000  54.0000 12.41559304    14
CTC1_L_00440014-01
1 42578U 23533XF  26070.40836806  .00000000  00000+0  00000-0 0  9991
2 42578  40.0000 156.0000 0000000   0.0000 156.0000 12.41559304    11
CTC1_L_00440014-02
1 42579U 22108D   26070.40836806  .00000000  00000+0  00000-0 0  9999
2 42579  40.0000 156.0000 0000000   0.0000 246.0000 12.41559304    12
CTC1_L_00440014-03
1 42580U 26677DM  26070.40836806  .00000000  00000+0  00000-0 0  9996
2 42580  40.0000 156.0000 0000000   0.0000 336.0000 12.41559304    14
CTC1_L_00440014-04
1 42581U 24872GL  26070.40836806  .00000000  00000+0  00000-0 0  9992
2 42581  40.0000 156.0000 0000000   0.0000  66.0000 12.41559304    15
CTC1_L_00440015-01
1 42582U 26845YF  26070.40836806  .00000000  00000+0  00000-0 0  9995
2 42582  40.0000 168.0000 0000000   0.0000 168.0000 12.41559304    12
CTC1_L_00440015-02
1 42583U 24853EU  26070.40836806  .00000000  00000+0  00000-0 0  9993
2 42583  40.0000 168.0000 0000000   0.0000 258.0000 12.41559304    13
CTC1_L_00440015-03
1 42584U 22973LK  26070.40836806  .00000000  00000+0  00000-0 0  9995
2 42584  40.0000 168.0000 0000000   0.0000 348.0000 12.41559304    14
CTC1_L_00440015-04
1 42585U 23042GD  26070.40836806  .00000000  00000+0  00000-0 0  9994
2 42585  40.0000 168.0000 0000000   0.0000  78.0000 12.41559304    15
CTC1_L_00440016-01
1 42586U 25895DS  26070.40836806  .00000000  00000+0  00000-0 0  9993
2 42586  40.0000 180.0000 0000000   0.0000 180.0000 12.41559304    14
CTC1_L_00440016-02
1 42587U 24200AC  26070.40836806  .00000000  00000+0  00000-0 0  9993
2 42587  40.0000 180.0000 0000000   0.0000 270.0000 12.41559304    15
